{"spaceTrack"{"CCSDS_OMM_VERS":"2.0","COMMENT":"GENERATED VIA SPACE-TRACK.ORG API","CREATION_DATE":"2021-01-26T06:36:09","ORIGINATOR":"18 SPCS","OBJECT_NAME":"STARLINK-1307","OBJECT_ID":"2020-019AP","CENTER_NAME":"EARTH","REF_FRAME":"TEME","TIME_SYSTEM":"UTC","MEAN_ELEMENT_THEORY":"SGP4","EPOCH":"2021-01-25T23:44:11.687424","MEAN_MOTION":15.0639704,"ECCENTRICITY":0.0002085,"INCLINATION":53.0547,"RA_OF_ASC_NODE":255.5287,"ARG_OF_PERICENTER":80.3242,"MEAN_ANOMALY":279.7982,"EPHEMERIS_TYPE":0,"CLASSIFICATION_TYPE":"U","NORAD_CAT_ID":45397,"ELEMENT_SET_NO":999,"REV_AT_EPOCH":4817,"BSTAR":-0.000060357,"MEAN_MOTION_DOT":-0.00001181,"MEAN_MOTION_DDOT":0,"SEMIMAJOR_AXIS":6925.358,"PERIOD":95.592,"APOAPSIS":548.667,"PERIAPSIS":545.779,"OBJECT_TYPE":"PAYLOAD","RCS_SIZE":"LARGE","COUNTRY_CODE":"US","LAUNCH_DATE":"2020-03-18","SITE":"AFETR","DECAY_DATE":null,"DECAYED":0,"FILE":2939477,"GP_ID":170377282,"TLE_LINE0":"0 STARLINK-1307","TLE_LINE1":"1 45397U 20019AP  21025.98902416 -.00001181  00000-0 -60357-4 0  9997","TLE_LINE2":"2 45397  53.0547 255.5287 0002085  80.3242 279.7982 15.06397040 48171"},"version":"v1.0","launch":"5eb87d43ffd86e000604b385","longitude":47,"latitude":-12.695769054715338,"height_km":550.8079809432584,"velocity_kms":7.586789727567005,"id":"5eed7715096e590006985779"}
{"spaceTrack"{"CCSDS_OMM_VERS":"2.0","COMMENT":"GENERATED VIA SPACE-TRACK.ORG API","CREATION_DATE":"2021-01-26T13:36:10","ORIGINATOR":"18 SPCS","OBJECT_NAME":"STARLINK-1304","OBJECT_ID":"2020-019S","CENTER_NAME":"EARTH","REF_FRAME":"TEME","TIME_SYSTEM":"UTC","MEAN_ELEMENT_THEORY":"SGP4","EPOCH":"2021-01-26T11:11:31.114176","MEAN_MOTION":15.06125619,"ECCENTRICITY":0.0001546,"INCLINATION":53.0014,"RA_OF_ASC_NODE":273.3917,"ARG_OF_PERICENTER":72.4859,"MEAN_ANOMALY":287.6298,"EPHEMERIS_TYPE":0,"CLASSIFICATION_TYPE":"U","NORAD_CAT_ID":45376,"ELEMENT_SET_NO":999,"REV_AT_EPOCH":4814,"BSTAR":0.0033979,"MEAN_MOTION_DOT":0.00050319,"MEAN_MOTION_DDOT":0,"SEMIMAJOR_AXIS":6926.19,"PERIOD":95.61,"APOAPSIS":549.125,"PERIAPSIS":546.984,"OBJECT_TYPE":"PAYLOAD","RCS_SIZE":"LARGE","COUNTRY_CODE":"US","LAUNCH_DATE":"2020-03-18","SITE":"AFETR","DECAY_DATE":null,"DECAYED":0,"FILE":2940040,"GP_ID":170390204,"TLE_LINE0":"0 STARLINK-1304","TLE_LINE1":"1 45376U 20019S   21026.46633234  .00050319  00000-0  33979-2 0  9990","TLE_LINE2":"2 45376  53.0014 273.3917 0001546  72.4859 287.6298 15.06125619 48148"},"version":"v1.0","launch":"5eb87d43ffd86e000604b385","longitude":76,"latitude":-52.96689242019242,"height_km":567.3819119731279,"velocity_kms":7.576692361661085,"id":"5eed7715096e59000698577a"}
{"spaceTrack"{"CCSDS_OMM_VERS":"2.0","COMMENT":"GENERATED VIA SPACE-TRACK.ORG API","CREATION_DATE":"2021-01-26T14:16:09","ORIGINATOR":"18 SPCS","OBJECT_NAME":"STARLINK-1337","OBJECT_ID":"2020-025BD","CENTER_NAME":"EARTH","REF_FRAME":"TEME","TIME_SYSTEM":"UTC","MEAN_ELEMENT_THEORY":"SGP4","EPOCH":"2021-01-26T10:09:10.514304","MEAN_MOTION":15.06154764,"ECCENTRICITY":0.0001488,"INCLINATION":53.0033,"RA_OF_ASC_NODE":183.5882,"ARG_OF_PERICENTER":111.6881,"MEAN_ANOMALY":248.4266,"EPHEMERIS_TYPE":0,"CLASSIFICATION_TYPE":"U","NORAD_CAT_ID":45582,"ELEMENT_SET_NO":999,"REV_AT_EPOCH":4331,"BSTAR":0.0030874,"MEAN_MOTION_DOT":0.00045701,"MEAN_MOTION_DDOT":0,"SEMIMAJOR_AXIS":6926.1,"PERIOD":95.608,"APOAPSIS":548.996,"PERIAPSIS":546.935,"OBJECT_TYPE":"PAYLOAD","RCS_SIZE":"LARGE","COUNTRY_CODE":"US","LAUNCH_DATE":"2020-04-22","SITE":"AFETR","DECAY_DATE":null,"DECAYED":0,"FILE":2940085,"GP_ID":170391113,"TLE_LINE0":"0 STARLINK-1337","TLE_LINE1":"1 45582U 20025BD  21026.42303836  .00045701  00000-0  30874-2 0  9994","TLE_LINE2":"2 45582  53.0033 183.5882 0001488 111.6881 248.4266 15.06154764 43314"},"version":"v1.0","launch":"5eb87d44ffd86e000604b386","longitude":108,"latitude":24.396925208012767,"height_km":547.9694190045948,"velocity_kms":7.59185388011208,"id":"5eed7715096e59000698577b"}
{"spaceTrack"{"CCSDS_OMM_VERS":"2.0","COMMENT":"GENERATED VIA SPACE-TRACK.ORG API","CREATION_DATE":"2021-01-26T13:36:10","ORIGINATOR":"18 SPCS","OBJECT_NAME":"STARLINK-1299","OBJECT_ID":"2020-019BL","CENTER_NAME":"EARTH","REF_FRAME":"TEME","TIME_SYSTEM":"UTC","MEAN_ELEMENT_THEORY":"SGP4","EPOCH":"2021-01-26T09:55:45.512544","MEAN_MOTION":14.99870093,"ECCENTRICITY":0.0001894,"INCLINATION":53.002,"RA_OF_ASC_NODE":281.3825,"ARG_OF_PERICENTER":79.6699,"MEAN_ANOMALY":280.45,"EPHEMERIS_TYPE":0,"CLASSIFICATION_TYPE":"U","NORAD_CAT_ID":45418,"ELEMENT_SET_NO":999,"REV_AT_EPOCH":4776,"BSTAR":0.00019055,"MEAN_MOTION_DOT":0.00002122,"MEAN_MOTION_DDOT":0,"SEMIMAJOR_AXIS":6945.434,"PERIOD":96.008,"APOAPSIS":568.615,"PERIAPSIS":565.984,"OBJECT_TYPE":"PAYLOAD","RCS_SIZE":"LARGE","COUNTRY_CODE":"US","LAUNCH_DATE":"2020-03-18","SITE":"AFETR","DECAY_DATE":null,"DECAYED":0,"FILE":2940038,"GP_ID":170390165,"TLE_LINE0":"0 STARLINK-1299","TLE_LINE1":"1 45418U 20019BL  21026.41372121  .00002122  00000-0  19055-3 0  9996","TLE_LINE2":"2 45418  53.0020 281.3825 0001894  79.6699 280.4500 14.99870093 47764"},"version":"v1.0","launch":"5eb87d43ffd86e000604b385","longitude":17,"latitude":-11.545090237690536,"height_km":570.9061273299967,"velocity_kms":7.575673938538623,"id":"5eed7715096e59000698577c"}
{"spaceTrack"{"CCSDS_OMM_VERS":"2.0","COMMENT":"GENERATED VIA SPACE-TRACK.ORG API","CREATION_DATE":"2021-01-26T13:26:11","ORIGINATOR":"18 SPCS","OBJECT_NAME":"STARLINK-1286","OBJECT_ID":"2020-019BK","CENTER_NAME":"EARTH","REF_FRAME":"TEME","TIME_SYSTEM":"UTC","MEAN_ELEMENT_THEORY":"SGP4","EPOCH":"2021-01-26T09:30:44.817984","MEAN_MOTION":15.06228578,"ECCENTRICITY":0.00018,"INCLINATION":53.0083,"RA_OF_ASC_NODE":273.7047,"ARG_OF_PERICENTER":72.1636,"MEAN_ANOMALY":287.9549,"EPHEMERIS_TYPE":0,"CLASSIFICATION_TYPE":"U","NORAD_CAT_ID":45417,"ELEMENT_SET_NO":999,"REV_AT_EPOCH":4813,"BSTAR":0.0021216,"MEAN_MOTION_DOT":0.00031315,"MEAN_MOTION_DDOT":0,"SEMIMAJOR_AXIS":6925.874,"PERIOD":95.603,"APOAPSIS":548.986,"PERIAPSIS":546.492,"OBJECT_TYPE":"PAYLOAD","RCS_SIZE":"LARGE","COUNTRY_CODE":"US","LAUNCH_DATE":"2020-03-18","SITE":"AFETR","DECAY_DATE":null,"DECAYED":0,"FILE":2939813,"GP_ID":170383734,"TLE_LINE0":"0 STARLINK-1286","TLE_LINE1":"1 45417U 20019BK  21026.39635206  .00031315  00000-0  21216-2 0  9995","TLE_LINE2":"2 45417  53.0083 273.7047 0001800  72.1636 287.9549 15.06228578 48130"},"version":"v1.0","launch":"5eb87d43ffd86e000604b385","longitude":9,"latitude":-47.064553809459355,"height_km":564.6742911901501,"velocity_kms":7.5781733908384465,"id":"5eed7715096e59000698577d"}
{"spaceTrack"{"CCSDS_OMM_VERS":"2.0","COMMENT":"GENERATED VIA SPACE-TRACK.ORG API","CREATION_DATE":"2021-01-26T13:36:10","ORIGINATOR":"18 SPCS","OBJECT_NAME":"STARLINK-1318","OBJECT_ID":"2020-019BJ","CENTER_NAME":"EARTH","REF_FRAME":"TEME","TIME_SYSTEM":"UTC","MEAN_ELEMENT_THEORY":"SGP4","EPOCH":"2021-01-26T10:59:36.728736","MEAN_MOTION":15.06404094,"ECCENTRICITY":0.0001915,"INCLINATION":53.0267,"RA_OF_ASC_NODE":243.4043,"ARG_OF_PERICENTER":81.4618,"MEAN_ANOMALY":278.6588,"EPHEMERIS_TYPE":0,"CLASSIFICATION_TYPE":"U","NORAD_CAT_ID":45416,"ELEMENT_SET_NO":999,"REV_AT_EPOCH":4828,"BSTAR":0.000099979,"MEAN_MOTION_DOT":0.00001208,"MEAN_MOTION_DDOT":0,"SEMIMAJOR_AXIS":6925.336,"PERIOD":95.592,"APOAPSIS":548.527,"PERIAPSIS":545.875,"OBJECT_TYPE":"PAYLOAD","RCS_SIZE":"LARGE","COUNTRY_CODE":"US","LAUNCH_DATE":"2020-03-18","SITE":"AFETR","DECAY_DATE":null,"DECAYED":0,"FILE":2940042,"GP_ID":170389718,"TLE_LINE0":"0 STARLINK-1318","TLE_LINE1":"1 45416U 20019BJ  21026.45806399  .00001208  00000-0  99979-4 0  9995","TLE_LINE2":"2 45416  53.0267 243.4043 0001915  81.4618 278.6588 15.06404094 48288"},"version":"v1.0","launch":"5eb87d43ffd86e000604b385","longitude":46,"latitude":-31.77652635639681,"height_km":557.7289987616305,"velocity_kms":7.582156784031905,"id":"5eed7715096e59000698577e"}
{"spaceTrack"{"CCSDS_OMM_VERS":"2.0","COMMENT":"GENERATED VIA SPACE-TRACK.ORG API","CREATION_DATE":"2021-01-26T02:30:00","ORIGINATOR":"18 SPCS","OBJECT_NAME":"STARLINK-1471","OBJECT_ID":"2020-038F","CENTER_NAME":"EARTH","REF_FRAME":"TEME","TIME_SYSTEM":"UTC","MEAN_ELEMENT_THEORY":"SGP4","EPOCH":"2021-01-25T20:53:00.670560","MEAN_MOTION":15.06389614,"ECCENTRICITY":0.0001631,"INCLINATION":53.0458,"RA_OF_ASC_NODE":346.0401,"ARG_OF_PERICENTER":67.9322,"MEAN_ANOMALY":292.184,"EPHEMERIS_TYPE":0,"CLASSIFICATION_TYPE":"U","NORAD_CAT_ID":45735,"ELEMENT_SET_NO":999,"REV_AT_EPOCH":3451,"BSTAR":-0.000013139,"MEAN_MOTION_DOT":-0.00000477,"MEAN_MOTION_DDOT":0,"SEMIMAJOR_AXIS":6925.38,"PERIOD":95.593,"APOAPSIS":548.375,"PERIAPSIS":546.116,"OBJECT_TYPE":"PAYLOAD","RCS_SIZE":"LARGE","COUNTRY_CODE":"US","LAUNCH_DATE":"2020-06-13","SITE":"AFETR","DECAY_DATE":null,"DECAYED":0,"FILE":2939303,"GP_ID":170370769,"TLE_LINE0":"0 STARLINK-1471","TLE_LINE1":"1 45735U 20038F   21025.87014665 -.00000477  00000-0 -13139-4 0  9995","TLE_LINE2":"2 45735  53.0458 346.0401 0001631  67.9322 292.1840 15.06389614 34511"},"version":"v1.0","launch":"5eb87d46ffd86e000604b389","longitude":95,"latitude":-53.19533130325947,"height_km":566.7919165855765,"velocity_kms":7.57697486724489,"id":"5eed7715096e59000698577f"}
